STARLINK-36885          
1 68049U 26041K   26076.58335648 -.00047018  00000+0 -30416-3 0  9991
2 68049  53.1598  22.5922 0001206 119.7733 347.0233 15.75245584  3643
STARLINK-36945          
1 68050U 26041L   26076.55695400  .00214112  00000+0  10584-2 0  9997
2 68050  53.1594  22.6355 0001649  63.1832 296.9359 15.80938739  2462
STARLINK-35911          
1 68051U 26041M   26076.55544960  .00245529  00000+0  12073-2 0  9993
2 68051  53.1595  22.6255 0001305  69.7818 290.3345 15.80965194  2466
STARLINK-35808          
1 68052U 26041N   26076.55470436  .00304332  00000+0  14846-2 0  9998
2 68052  53.1594  22.6198 0001983  87.3190 272.8060 15.80977127  2461
STARLINK-36919          
1 68053U 26041P   26076.55394857  .00206161  00000+0  10193-2 0  9993
2 68053  53.1596  22.6144 0001197  75.3623 284.7533 15.80957789  2469
STARLINK-36924          
1 68054U 26041Q   26076.58335648 -.00051362  00000+0 -33264-3 0  9998
2 68054  53.1600  22.5430 0001029  75.9208  54.7475 15.75257990  3644
STARLINK-35998          
1 68055U 26041R   26076.36353814  .00338446  00000+0  16405-2 0  9996
2 68055  53.1595  23.5604 0001245  68.5020 291.6136 15.81023504  2433
STARLINK-36845          
1 68056U 26041S   26076.55169797  .00246081  00000+0  12098-2 0  9990
2 68056  53.1596  22.5989 0000843  89.8323 270.2797 15.80967834  2466
STARLINK-36954          
1 68057U 26041T   26076.58335648 -.00035341  00000+0 -22737-3 0  9993
2 68057  53.1598  22.5382 0000960 128.3684   4.1871 15.75235505  3640
STARLINK-36899          
1 68058U 26041U   26076.58335648 -.00129386  00000+0 -85283-3 0  9992
2 68058  53.1597  22.4889 0000988  99.3576  57.1984 15.75239051  3641
STARLINK-36917          
1 68059U 26041V   26076.42301065  .00113589  00000+0  57009-3 0  9993
2 68059  53.1597  23.2174 0000985 108.0843 252.0287 15.80926610  2449
STARLINK-36959          
1 68060U 26041W   26076.58335648 -.00049075  00000+0 -31780-3 0  9994
2 68060  53.1593  22.4358 0000824 118.3098  63.8895 15.75241263  3644
