CCSDS_OMM_VERS = 2.0
CREATION_DATE  = 
ORIGINATOR     = 

OBJECT_NAME    = STARLINK-36885
OBJECT_ID      = 2026-041K
CENTER_NAME    = EARTH
REF_FRAME      = TEME
TIME_SYSTEM    = UTC
MEAN_ELEMENT_THEORY = SGP/SGP4

EPOCH          = 2026-03-17T14:00:01.999872
MEAN_MOTION    = 15.75245584
ECCENTRICITY   = .00012069
INCLINATION    = 53.1598
RA_OF_ASC_NODE = 22.5922
ARG_OF_PERICENTER = 119.7733
MEAN_ANOMALY   = 347.0233

EPHEMERIS_TYPE = 0
CLASSIFICATION_TYPE = U
NORAD_CAT_ID   = 68049
ELEMENT_SET_NO = 999
REV_AT_EPOCH   = 364
BSTAR          = -.30415516E-3
MEAN_MOTION_DOT = -.47018E-3
MEAN_MOTION_DDOT = 0

CCSDS_OMM_VERS = 2.0
CREATION_DATE  = 
ORIGINATOR     = 

OBJECT_NAME    = STARLINK-36945
OBJECT_ID      = 2026-041L
CENTER_NAME    = EARTH
REF_FRAME      = TEME
TIME_SYSTEM    = UTC
MEAN_ELEMENT_THEORY = SGP/SGP4

EPOCH          = 2026-03-17T13:22:00.825600
MEAN_MOTION    = 15.80938739
ECCENTRICITY   = .00016499
INCLINATION    = 53.1594
RA_OF_ASC_NODE = 22.6355
ARG_OF_PERICENTER = 63.1832
MEAN_ANOMALY   = 296.9359

EPHEMERIS_TYPE = 0
CLASSIFICATION_TYPE = U
NORAD_CAT_ID   = 68050
ELEMENT_SET_NO = 999
REV_AT_EPOCH   = 246
BSTAR          = .10584401E-2
MEAN_MOTION_DOT = .214112E-2
MEAN_MOTION_DDOT = 0

CCSDS_OMM_VERS = 2.0
CREATION_DATE  = 
ORIGINATOR     = 

OBJECT_NAME    = STARLINK-35911
OBJECT_ID      = 2026-041M
CENTER_NAME    = EARTH
REF_FRAME      = TEME
TIME_SYSTEM    = UTC
MEAN_ELEMENT_THEORY = SGP/SGP4

EPOCH          = 2026-03-17T13:19:50.845440
MEAN_MOTION    = 15.80965194
ECCENTRICITY   = .00013056
INCLINATION    = 53.1595
RA_OF_ASC_NODE = 22.6255
ARG_OF_PERICENTER = 69.7818
MEAN_ANOMALY   = 290.3345

EPHEMERIS_TYPE = 0
CLASSIFICATION_TYPE = U
NORAD_CAT_ID   = 68051
ELEMENT_SET_NO = 999
REV_AT_EPOCH   = 246
BSTAR          = .12073349E-2
MEAN_MOTION_DOT = .245529E-2
MEAN_MOTION_DDOT = 0

CCSDS_OMM_VERS = 2.0
CREATION_DATE  = 
ORIGINATOR     = 

OBJECT_NAME    = STARLINK-35808
OBJECT_ID      = 2026-041N
CENTER_NAME    = EARTH
REF_FRAME      = TEME
TIME_SYSTEM    = UTC
MEAN_ELEMENT_THEORY = SGP/SGP4

EPOCH          = 2026-03-17T13:18:46.456704
MEAN_MOTION    = 15.80977127
ECCENTRICITY   = .00019833
INCLINATION    = 53.1594
RA_OF_ASC_NODE = 22.6198
ARG_OF_PERICENTER = 87.3190
MEAN_ANOMALY   = 272.8060

EPHEMERIS_TYPE = 0
CLASSIFICATION_TYPE = U
NORAD_CAT_ID   = 68052
ELEMENT_SET_NO = 999
REV_AT_EPOCH   = 246
BSTAR          = .14845996E-2
MEAN_MOTION_DOT = .304332E-2
MEAN_MOTION_DDOT = 0

CCSDS_OMM_VERS = 2.0
CREATION_DATE  = 
ORIGINATOR     = 

OBJECT_NAME    = STARLINK-36919
OBJECT_ID      = 2026-041P
CENTER_NAME    = EARTH
REF_FRAME      = TEME
TIME_SYSTEM    = UTC
MEAN_ELEMENT_THEORY = SGP/SGP4

EPOCH          = 2026-03-17T13:17:41.156448
MEAN_MOTION    = 15.80957789
ECCENTRICITY   = .00011979
INCLINATION    = 53.1596
RA_OF_ASC_NODE = 22.6144
ARG_OF_PERICENTER = 75.3623
MEAN_ANOMALY   = 284.7533

EPHEMERIS_TYPE = 0
CLASSIFICATION_TYPE = U
NORAD_CAT_ID   = 68053
ELEMENT_SET_NO = 999
REV_AT_EPOCH   = 246
BSTAR          = .10193229E-2
MEAN_MOTION_DOT = .206161E-2
MEAN_MOTION_DDOT = 0

CCSDS_OMM_VERS = 2.0
CREATION_DATE  = 
ORIGINATOR     = 

OBJECT_NAME    = STARLINK-36924
OBJECT_ID      = 2026-041Q
CENTER_NAME    = EARTH
REF_FRAME      = TEME
TIME_SYSTEM    = UTC
MEAN_ELEMENT_THEORY = SGP/SGP4

EPOCH          = 2026-03-17T14:00:01.999872
MEAN_MOTION    = 15.75257990
ECCENTRICITY   = .00010298
INCLINATION    = 53.1600
RA_OF_ASC_NODE = 22.5430
ARG_OF_PERICENTER = 75.9208
MEAN_ANOMALY   = 54.7475

EPHEMERIS_TYPE = 0
CLASSIFICATION_TYPE = U
NORAD_CAT_ID   = 68054
ELEMENT_SET_NO = 999
REV_AT_EPOCH   = 364
BSTAR          = -.33264234E-3
MEAN_MOTION_DOT = -.51362E-3
MEAN_MOTION_DDOT = 0

CCSDS_OMM_VERS = 2.0
CREATION_DATE  = 
ORIGINATOR     = 

OBJECT_NAME    = STARLINK-35998
OBJECT_ID      = 2026-041R
CENTER_NAME    = EARTH
REF_FRAME      = TEME
TIME_SYSTEM    = UTC
MEAN_ELEMENT_THEORY = SGP/SGP4

EPOCH          = 2026-03-17T08:43:29.695296
MEAN_MOTION    = 15.81023504
ECCENTRICITY   = .00012455
INCLINATION    = 53.1595
RA_OF_ASC_NODE = 23.5604
ARG_OF_PERICENTER = 68.5020
MEAN_ANOMALY   = 291.6136

EPHEMERIS_TYPE = 0
CLASSIFICATION_TYPE = U
NORAD_CAT_ID   = 68055
ELEMENT_SET_NO = 999
REV_AT_EPOCH   = 243
BSTAR          = .16405462E-2
MEAN_MOTION_DOT = .338446E-2
MEAN_MOTION_DDOT = 0

CCSDS_OMM_VERS = 2.0
CREATION_DATE  = 
ORIGINATOR     = 

OBJECT_NAME    = STARLINK-36845
OBJECT_ID      = 2026-041S
CENTER_NAME    = EARTH
REF_FRAME      = TEME
TIME_SYSTEM    = UTC
MEAN_ELEMENT_THEORY = SGP/SGP4

EPOCH          = 2026-03-17T13:14:26.704608
MEAN_MOTION    = 15.80967834
ECCENTRICITY   = .00008439
INCLINATION    = 53.1596
RA_OF_ASC_NODE = 22.5989
ARG_OF_PERICENTER = 89.8323
MEAN_ANOMALY   = 270.2797

EPHEMERIS_TYPE = 0
CLASSIFICATION_TYPE = U
NORAD_CAT_ID   = 68056
ELEMENT_SET_NO = 999
REV_AT_EPOCH   = 246
BSTAR          = .12098051E-2
MEAN_MOTION_DOT = .246081E-2
MEAN_MOTION_DDOT = 0

CCSDS_OMM_VERS = 2.0
CREATION_DATE  = 
ORIGINATOR     = 

OBJECT_NAME    = STARLINK-36954
OBJECT_ID      = 2026-041T
CENTER_NAME    = EARTH
REF_FRAME      = TEME
TIME_SYSTEM    = UTC
MEAN_ELEMENT_THEORY = SGP/SGP4

EPOCH          = 2026-03-17T14:00:01.999872
MEAN_MOTION    = 15.75235505
ECCENTRICITY   = .00009609
INCLINATION    = 53.1598
RA_OF_ASC_NODE = 22.5382
ARG_OF_PERICENTER = 128.3684
MEAN_ANOMALY   = 4.1871

EPHEMERIS_TYPE = 0
CLASSIFICATION_TYPE = U
NORAD_CAT_ID   = 68057
ELEMENT_SET_NO = 999
REV_AT_EPOCH   = 364
BSTAR          = -.22737118E-3
MEAN_MOTION_DOT = -.35341E-3
MEAN_MOTION_DDOT = 0

CCSDS_OMM_VERS = 2.0
CREATION_DATE  = 
ORIGINATOR     = 

OBJECT_NAME    = STARLINK-36899
OBJECT_ID      = 2026-041U
CENTER_NAME    = EARTH
REF_FRAME      = TEME
TIME_SYSTEM    = UTC
MEAN_ELEMENT_THEORY = SGP/SGP4

EPOCH          = 2026-03-17T14:00:01.999872
MEAN_MOTION    = 15.75239051
ECCENTRICITY   = .00009886
INCLINATION    = 53.1597
RA_OF_ASC_NODE = 22.4889
ARG_OF_PERICENTER = 99.3576
MEAN_ANOMALY   = 57.1984

EPHEMERIS_TYPE = 0
CLASSIFICATION_TYPE = U
NORAD_CAT_ID   = 68058
ELEMENT_SET_NO = 999
REV_AT_EPOCH   = 364
BSTAR          = -.8528284E-3
MEAN_MOTION_DOT = -.129386E-2
MEAN_MOTION_DDOT = 0

CCSDS_OMM_VERS = 2.0
CREATION_DATE  = 
ORIGINATOR     = 

OBJECT_NAME    = STARLINK-36917
OBJECT_ID      = 2026-041V
CENTER_NAME    = EARTH
REF_FRAME      = TEME
TIME_SYSTEM    = UTC
MEAN_ELEMENT_THEORY = SGP/SGP4

EPOCH          = 2026-03-17T10:09:08.120160
MEAN_MOTION    = 15.80926610
ECCENTRICITY   = .00009852
INCLINATION    = 53.1597
RA_OF_ASC_NODE = 23.2174
ARG_OF_PERICENTER = 108.0843
MEAN_ANOMALY   = 252.0287

EPHEMERIS_TYPE = 0
CLASSIFICATION_TYPE = U
NORAD_CAT_ID   = 68059
ELEMENT_SET_NO = 999
REV_AT_EPOCH   = 244
BSTAR          = .5700856E-3
MEAN_MOTION_DOT = .113589E-2
MEAN_MOTION_DDOT = 0

CCSDS_OMM_VERS = 2.0
CREATION_DATE  = 
ORIGINATOR     = 

OBJECT_NAME    = STARLINK-36959
OBJECT_ID      = 2026-041W
CENTER_NAME    = EARTH
REF_FRAME      = TEME
TIME_SYSTEM    = UTC
MEAN_ELEMENT_THEORY = SGP/SGP4

EPOCH          = 2026-03-17T14:00:01.999872
MEAN_MOTION    = 15.75241263
ECCENTRICITY   = .00008247
INCLINATION    = 53.1593
RA_OF_ASC_NODE = 22.4358
ARG_OF_PERICENTER = 118.3098
MEAN_ANOMALY   = 63.8895

EPHEMERIS_TYPE = 0
CLASSIFICATION_TYPE = U
NORAD_CAT_ID   = 68060
ELEMENT_SET_NO = 999
REV_AT_EPOCH   = 364
BSTAR          = -.31779764E-3
MEAN_MOTION_DOT = -.49075E-3
MEAN_MOTION_DDOT = 0

